TANAGER-1               
1 60507U 24149AR  26170.75050197  .00003406  00000+0  74551-4 0  9996
2 60507  97.2547 264.9980 0002942 287.1931  72.8996 15.44830113103432
EAGLEEYE                
1 60508U 24149AS  26170.78156845  .00083186  00000+0  65149-3 0  9992
2 60508  97.3717 264.2635 0004479 231.0477 129.0387 15.71326473103341
FLOCK 4BE-29            
1 60509U 24149AT  26170.77206104  .00014221  00000+0  31153-3 0  9998
2 60509  97.3808 256.6839 0001432 273.4671  86.6414 15.44213565102813
TRANSPORTER-11 OBJECT AU
1 60510U 24149AU  26170.78655393  .00012458  00000+0  31132-3 0  9996
2 60510  97.3727 254.5279 0002243 273.5736  86.5253 15.40282130102713
FLOCK 4BE-2             
1 60511U 24149AV  26170.89459418  .00049112  00000+0  78643-3 0  9994
2 60511  97.3830 258.2669 0003626 243.0743 117.0140 15.52962926102928
FLOCK 4BE-13            
1 60512U 24149AW  26170.75180556  .00011421  00000+0  27037-3 0  9997
2 60512  97.3717 255.1898 0003083 247.6667 112.4253 15.41944454102765
FLOCK 4BE-27            
1 60513U 24149AX  26170.47687350  .00007352  00000+0  22253-3 0  9994
2 60513  97.3821 252.3291 0002385 303.5812  56.5203 15.34478372102492
FLOCK 4BE-9             
1 60514U 24149AY  26170.75275302  .00012234  00000+0  30005-3 0  9995
2 60514  97.3791 255.0493 0001436 274.8533  85.2549 15.40858219102715
FLOCK 4BE-6             
1 60516U 24149BA  26170.91354308  .00012376  00000+0  31586-3 0  9991
2 60516  97.3787 254.5650 0002114 275.2272  84.8733 15.39638350102697
FLOCK 4BE-14            
1 60517U 24149BB  26170.76490571  .00013662  00000+0  33254-3 0  9991
2 60517  97.3692 254.5536 0003088 276.8060  83.2835 15.41058183102722
FLOCK 4BE-1             
1 60518U 24149BC  26170.84300580  .00015040  00000+0  34674-3 0  9990
2 60518  97.3778 255.9192 0002922 275.5654  84.5260 15.42673482102780
FLOCK 4BE-28            
1 60519U 24149BD  26170.78848093  .00015382  00000+0  32805-3 0  9993
2 60519  97.3744 256.5963 0003002 268.2564  91.8341 15.44985977102841
IPERDRONE.0             
1 60520U 24149BE  26170.73338699  .00070025  00000+0  65668-3 0  9994
2 60520  97.3773 264.0716 0003767 218.8166 141.2825 15.66974774103319
TRANSPORTER-11 OBJECT BF
1 60521U 24149BF  26170.78033060  .00237816  00000+0  95308-3 0  9991
2 60521  97.3750 266.9226 0006440 230.7701 129.2999 15.85874091103490
CONNECTA IOT-2          
1 60522U 24149BG  26170.74079995  .00003579  00000+0  15070-3 0  9990
2 60522  97.3836 248.8479 0005307 327.1015  32.9891 15.23992844102281
CONNECTA IOT-4          
1 60524U 24149BJ  26170.73784480  .00016493  00000+0  38573-3 0  9995
2 60524  97.3793 255.1383 0004092 272.6838  87.3941 15.42218684102720
ORESAT0.5               
1 60525U 24149BK  26170.77346208  .00017248  00000+0  36530-3 0  9992
2 60525  97.3717 256.8133 0004216 260.7890  99.2882 15.45161735102871
DEIMOS                  
1 60526U 24149BL  26170.74231256  .00015548  00000+0  33931-3 0  9999
2 60526  97.3778 256.9210 0004092 268.9821  91.0958 15.44298340102845
CUAVA-2                 
1 60527U 24149BM  26170.75391065  .00009927  00000+0  28386-3 0  9998
2 60527  97.3721 252.2775 0005204 282.7843  77.2819 15.36165688102563
ERNST                   
1 60528U 24149BN  26170.77017171  .00011648  00000+0  30101-3 0  9995
2 60528  97.3804 254.5092 0004408 285.5073  74.5685 15.39264938102678
TORO                    
1 60530U 24149BQ  26170.78072279  .00000947  00000+0  88527-4 0  9995
2 60530  97.6789 245.4002 0001363  79.8370 280.3006 14.96432819100340
HYPSO-2                 
1 60531U 24149BR  26170.73766211  .00001830  00000+0  15667-3 0  9993
2 60531  97.6806 246.9614 0000220  76.7791 283.3456 14.98797273100432
LEMU NGE                
1 60532U 24149BS  26170.72862312  .00001301  00000+0  12428-3 0  9997
2 60532  97.6843 245.6370 0001897  60.7407 299.4003 14.94961721100339
LEMUR-2-STELLA          
1 60533U 24149BT  26170.72923905  .00008707  00000+0  51284-3 0  9994
2 60533  97.6730 253.1954 0001466  96.6271 263.5126 15.11852671100887
SATELIOT_2              
1 60534U 24149BU  26170.90173221  .00001658  00000+0  15149-3 0  9991
2 60534  97.6833 245.8082 0002128  90.4000 269.7465 14.96372901100373
NIGHTJAR                
1 60535U 24149BV  26170.92898756  .00001933  00000+0  16431-3 0  9992
2 60535  97.6834 247.5982 0000963  82.9582 277.1750 14.99027354143288
LEMUR-2-MARHISYAM       
1 60536U 24149BW  26170.90910964  .00009222  00000+0  55111-3 0  9994
2 60536  97.6878 253.8277 0003296 112.7491 247.4087 15.11306709100899
SATELIOT_4              
1 60537U 24149BX  26170.77828685  .00000929  00000+0  86439-4 0  9991
2 60537  97.6740 245.2131 0003029  52.8583 307.2915 14.96677581100360
PICO-02A021             
1 60538U 24149BY  26170.16334308  .00004590  00000+0  34314-3 0  9991
2 60538  97.6753 248.9772 0004796  22.7959 337.3478 15.03270664100033
ICEYE-X43               
1 60539U 24149BZ  26170.76439453  .00003112  00000+0  25727-3 0  9992
2 60539  97.6791 247.6935 0008294  77.3954 282.8196 14.99632214100501
