OBJECT_NAME,OBJECT_ID,EPOCH,MEAN_MOTION,ECCENTRICITY,INCLINATION,RA_OF_ASC_NODE,ARG_OF_PERICENTER,MEAN_ANOMALY,EPHEMERIS_TYPE,CLASSIFICATION_TYPE,NORAD_CAT_ID,ELEMENT_SET_NO,REV_AT_EPOCH,BSTAR,MEAN_MOTION_DOT,MEAN_MOTION_DDOT
TANAGER-1,2024-149AR,2026-06-19T18:00:43.370208,15.44830113,.00029421,97.2547,264.9980,287.1931,72.8996,0,U,60507,999,10343,.74551119E-4,.3406E-4,0
EAGLEEYE,2024-149AS,2026-06-19T18:45:27.514080,15.71326473,.00044799,97.3717,264.2635,231.0477,129.0387,0,U,60508,999,10334,.65148809E-3,.83186E-3,0
FLOCK 4BE-29,2024-149AT,2026-06-19T18:31:46.073856,15.44213565,.0001432,97.3808,256.6839,273.4671,86.6414,0,U,60509,999,10281,.31153317E-3,.14221E-3,0
TRANSPORTER-11 OBJECT AU,2024-149AU,2026-06-19T18:52:38.259552,15.40282130,.00022433,97.3727,254.5279,273.5736,86.5253,0,U,60510,999,10271,.31132352E-3,.12458E-3,0
FLOCK 4BE-2,2024-149AV,2026-06-19T21:28:12.937152,15.52962926,.00036263,97.3830,258.2669,243.0743,117.0140,0,U,60511,999,10292,.7864304E-3,.49112E-3,0
FLOCK 4BE-13,2024-149AW,2026-06-19T18:02:36.000384,15.41944454,.00030838,97.3717,255.1898,247.6667,112.4253,0,U,60512,999,10276,.27037414E-3,.11421E-3,0
FLOCK 4BE-27,2024-149AX,2026-06-19T11:26:41.870400,15.34478372,.00023856,97.3821,252.3291,303.5812,56.5203,0,U,60513,999,10249,.22252554E-3,.7352E-4,0
FLOCK 4BE-9,2024-149AY,2026-06-19T18:03:57.860928,15.40858219,.00014363,97.3791,255.0493,274.8533,85.2549,0,U,60514,999,10271,.30005274E-3,.12234E-3,0
FLOCK 4BE-6,2024-149BA,2026-06-19T21:55:30.122112,15.39638350,.00021147,97.3787,254.5650,275.2272,84.8733,0,U,60516,999,10269,.31585845E-3,.12376E-3,0
FLOCK 4BE-14,2024-149BB,2026-06-19T18:21:27.853344,15.41058183,.00030883,97.3692,254.5536,276.8060,83.2835,0,U,60517,999,10272,.3325382E-3,.13662E-3,0
FLOCK 4BE-1,2024-149BC,2026-06-19T20:13:55.701120,15.42673482,.00029228,97.3778,255.9192,275.5654,84.5260,0,U,60518,999,10278,.34673633E-3,.1504E-3,0
FLOCK 4BE-28,2024-149BD,2026-06-19T18:55:24.752352,15.44985977,.00030022,97.3744,256.5963,268.2564,91.8341,0,U,60519,999,10284,.32804933E-3,.15382E-3,0
IPERDRONE.0,2024-149BE,2026-06-19T17:36:04.635936,15.66974774,.00037671,97.3773,264.0716,218.8166,141.2825,0,U,60520,999,10331,.65667851E-3,.70025E-3,0
TRANSPORTER-11 OBJECT BF,2024-149BF,2026-06-19T18:43:40.563840,15.85874091,.00064401,97.3750,266.9226,230.7701,129.2999,0,U,60521,999,10349,.95308377E-3,.237816E-2,0
CONNECTA IOT-2,2024-149BG,2026-06-19T17:46:45.115680,15.23992844,.00053077,97.3836,248.8479,327.1015,32.9891,0,U,60522,999,10228,.15070252E-3,.3579E-4,0
CONNECTA IOT-4,2024-149BJ,2026-06-19T17:42:29.790720,15.42218684,.00040926,97.3793,255.1383,272.6838,87.3941,0,U,60524,999,10272,.38573301E-3,.16493E-3,0
ORESAT0.5,2024-149BK,2026-06-19T18:33:47.123712,15.45161735,.00042165,97.3717,256.8133,260.7890,99.2882,0,U,60525,999,10287,.36530183E-3,.17248E-3,0
DEIMOS,2024-149BL,2026-06-19T17:48:55.805184,15.44298340,.00040921,97.3778,256.9210,268.9821,91.0958,0,U,60526,999,10284,.33931456E-3,.15548E-3,0
CUAVA-2,2024-149BM,2026-06-19T18:05:37.880160,15.36165688,.00052041,97.3721,252.2775,282.7843,77.2819,0,U,60527,999,10256,.28385983E-3,.9927E-4,0
ERNST,2024-149BN,2026-06-19T18:29:02.835744,15.39264938,.00044083,97.3804,254.5092,285.5073,74.5685,0,U,60528,999,10267,.3010125E-3,.11648E-3,0
TORO,2024-149BQ,2026-06-19T18:44:14.449056,14.96432819,.00013633,97.6789,245.4002,79.8370,280.3006,0,U,60530,999,10034,.88527122E-4,.947E-5,0
HYPSO-2,2024-149BR,2026-06-19T17:42:14.006304,14.98797273,.00002202,97.6806,246.9614,76.7791,283.3456,0,U,60531,999,10043,.1566671E-3,.183E-4,0
LEMU NGE,2024-149BS,2026-06-19T17:29:13.037568,14.94961721,.00018971,97.6843,245.6370,60.7407,299.4003,0,U,60532,999,10033,.1242751E-3,.1301E-4,0
LEMUR-2-STELLA,2024-149BT,2026-06-19T17:30:06.253920,15.11852671,.00014666,97.6730,253.1954,96.6271,263.5126,0,U,60533,999,10088,.51284421E-3,.8707E-4,0
SATELIOT_2,2024-149BU,2026-06-19T21:38:29.662944,14.96372901,.00021287,97.6833,245.8082,90.4000,269.7465,0,U,60534,999,10037,.15149198E-3,.1658E-4,0
NIGHTJAR,2024-149BV,2026-06-19T22:17:44.525184,14.99027354,.0000963,97.6834,247.5982,82.9582,277.1750,0,U,60535,999,14328,.16430509E-3,.1933E-4,0
LEMUR-2-MARHISYAM,2024-149BW,2026-06-19T21:49:07.072896,15.11306709,.00032961,97.6878,253.8277,112.7491,247.4087,0,U,60536,999,10089,.55111087E-3,.9222E-4,0
SATELIOT_4,2024-149BX,2026-06-19T18:40:43.983840,14.96677581,.00030299,97.6740,245.2131,52.8583,307.2915,0,U,60537,999,10036,.86439488E-4,.929E-5,0
PICO-02A021,2024-149BY,2026-06-19T03:55:12.842112,15.03270664,.00047963,97.6753,248.9772,22.7959,337.3478,0,U,60538,999,10003,.34313527E-3,.459E-4,0
ICEYE-X43,2024-149BZ,2026-06-19T18:20:43.687392,14.99632214,.00082948,97.6791,247.6935,77.3954,282.8196,0,U,60539,999,10050,.2572692E-3,.3112E-4,0
